[
	{
		"postcode" : ["82100"],
		"name" : "Ayer Baloi"
	},
	{
		"postcode" : ["86100"],
		"name" : "Ayer Hitam"
	},
	{
		"postcode" : ["81920"],
		"name" : "Ayer Tawar 2"
	},
	{
		"postcode" : ["81930"],
		"name" : "Bandar Penawar"
	},
	{
		"postcode" : ["81440"],
		"name" : "Bandar Tenggara"
	},
	{
		"postcode" : ["85100"],
		"name" : "Batu Anam"
	},
	{
		"postcode" : ["83000", "83010"],
		"name" : "Batu Pahat"
	},
	{
		"postcode" : ["86500"],
		"name" : "Bekok"
	},
	{
		"postcode" : ["82200"],
		"name" : "Benut"
	},
	{
		"postcode" : ["84800"],
		"name" : "Bukit Gambir"
	},
	{
		"postcode" : ["84300"],
		"name" : "Bukit Pasir"
	},
	{
		"postcode" : ["85400"],
		"name" : "Chaah"
	},
	{
		"postcode" : ["86900"],
		"name" : "Endau"
	},
	{
		"postcode" : ["81550"],
		"name" : "Gelang Patah"
	},
	{
		"postcode" : ["84700"],
		"name" : "Gerisek"
	},
	{
		"postcode" : ["81450"],
		"name" : "Gugusan Taib Andak"
	},
	{
		"postcode" : ["79000", "79050", "79100", "79150", "79200", "79250", "79502", "79503", "79504", "79505", "79511", "79513", "79514", "79517", "79518", "79520", "79521", "79523", "79532", "79538", "79540", "79546", "79548", "79550", "79552", "79555", "79570", "79575", "79576", "79592", "79601", "79603", "79605", "79606", "79612", "79626", "79630", "79632", "79646", "79658", "79660", "79680", "79681", "79683"],
		"name" : "Iskandar Puteri"
	},
	{
		"postcode" : ["85200"],
		"name" : "Jementah"
	},
	{
		"postcode" : ["80000", "80050", "80100", "80150", "80200", "80250", "80300", "80350", "80400", "80500", "80506", "80508", "80516", "80519", "80534", "80536", "80542", "80546", "80558", "80560", "80564", "80568", "80578", "80584", "80586", "80590", "80592", "80594", "80596", "80600", "80604", "80608", "80620", "80622", "80628", "80644", "80648", "80662", "80664", "80668", "80670", "80672", "80673", "80676", "80700", "80710", "80720", "80730", "80900", "80902", "80904", "80906", "80908", "80988", "80990", "81100", "81200", "81300", "81310"],
		"name" : "Johor Bahru"
	},
	{
		"postcode" : ["86700"],
		"name" : "Kahang"
	},
	{
		"postcode" : ["86000"],
		"name" : "Kluang"
	},
	{
		"postcode" : ["81900"],
		"name" : "Kota Tinggi"
	},
	{
		"postcode" : ["82300"],
		"name" : "Kukup"
	},
	{
		"postcode" : ["81000", "81030"],
		"name" : "Kulai"
	},
	{
		"postcode" : ["85300"],
		"name" : "Labis"
	},
	{
		"postcode" : ["81850"],
		"name" : "Layang-Layang"
	},
	{
		"postcode" : ["81750"],
		"name" : "Masai"
	},
	{
		"postcode" : ["86800", "86810"],
		"name" : "Mersing"
	},
	{
		"postcode" : ["84000", "84200"],
		"name" : "Muar"
	},
	{
		"postcode" : ["84600"],
		"name" : "Pagoh"
	},
	{
		"postcode" : ["86600"],
		"name" : "Paloh"
	},
	{
		"postcode" : ["84500"],
		"name" : "Panchor"
	},
	{
		"postcode" : ["84150"],
		"name" : "Parit Jawa"
	},
	{
		"postcode" : ["86400"],
		"name" : "Parit Raja"
	},
	{
		"postcode" : ["83500"],
		"name" : "Parit Sulong"
	},
	{
		"postcode" : ["81700"],
		"name" : "Pasir Gudang"
	},
	{
		"postcode" : ["81500"],
		"name" : "Pekan Nenas"
	},
	{
		"postcode" : ["81600"],
		"name" : "Pengerang"
	},
	{
		"postcode" : ["82000"],
		"name" : "Pontian"
	},
	{
		"postcode" : ["81550"],
		"name" : "Pulau Satu"
	},
	{
		"postcode" : ["86300"],
		"name" : "Rengam"
	},
	{
		"postcode" : ["83100"],
		"name" : "Rengit"
	},
	{
		"postcode" : ["85000", "85010", "85020"],
		"name" : "Segamat"
	},
	{
		"postcode" : ["83600"],
		"name" : "Semerah"
	},
	{
		"postcode" : ["81400"],
		"name" : "Senai"
	},
	{
		"postcode" : ["83200"],
		"name" : "Senggarang"
	},
	{
		"postcode" : ["83300"],
		"name" : "Seri Gading"
	},
	{
		"postcode" : ["83400"],
		"name" : "Seri Medan"
	},
	{
		"postcode" : ["86200"],
		"name" : "Simpang Rengam"
	},
	{
		"postcode" : ["84400"],
		"name" : "Sungai Mati"
	},
	{
		"postcode" : ["84900"],
		"name" : "Tangkak"
	},
	{
		"postcode" : ["81800"],
		"name" : "Ulu Tiram"
	},
	{
		"postcode" : ["83700"],
		"name" : "Yong Peng"
	}
]
