[
	{
		"postcode" : ["20000"],
		"name" : "Kuala Terengganu"
	},
	{
		"postcode" : ["20050"],
		"name" : "Kuala Terengganu"
	},
	{
		"postcode" : ["20100"],
		"name" : "Kuala Terengganu"
	},
	{
		"postcode" : ["20200"],
		"name" : "Kuala Terengganu"
	},
	{
		"postcode" : ["20300"],
		"name" : "Kuala Terengganu"
	},
	{
		"postcode" : ["20400"],
		"name" : "Kuala Terengganu"
	},
	{
		"postcode" : ["20500"],
		"name" : "Kuala Terengganu"
	},
	{
		"postcode" : ["20502"],
		"name" : "Kuala Terengganu"
	},
	{
		"postcode" : ["20503"],
		"name" : "Kuala Terengganu"
	},
	{
		"postcode" : ["20504"],
		"name" : "Kuala Terengganu"
	},
	{
		"postcode" : ["20505"],
		"name" : "Kuala Terengganu"
	},
	{
		"postcode" : ["20506"],
		"name" : "Kuala Terengganu"
	},
	{
		"postcode" : ["20508"],
		"name" : "Kuala Terengganu"
	},
	{
		"postcode" : ["20512"],
		"name" : "Kuala Terengganu"
	},
	{
		"postcode" : ["20514"],
		"name" : "Kuala Terengganu"
	},
	{
		"postcode" : ["20516"],
		"name" : "Kuala Terengganu"
	},
	{
		"postcode" : ["20517"],
		"name" : "Kuala Terengganu"
	},
	{
		"postcode" : ["20518"],
		"name" : "Kuala Terengganu"
	},
	{
		"postcode" : ["20519"],
		"name" : "Kuala Terengganu"
	},
	{
		"postcode" : ["20520"],
		"name" : "Kuala Terengganu"
	},
	{
		"postcode" : ["20532"],
		"name" : "Kuala Terengganu"
	},
	{
		"postcode" : ["20534"],
		"name" : "Kuala Terengganu"
	},
	{
		"postcode" : ["20536"],
		"name" : "Kuala Terengganu"
	},
	{
		"postcode" : ["20538"],
		"name" : "Kuala Terengganu"
	},
	{
		"postcode" : ["20540"],
		"name" : "Kuala Terengganu"
	},
	{
		"postcode" : ["20542"],
		"name" : "Kuala Terengganu"
	},
	{
		"postcode" : ["20546"],
		"name" : "Kuala Terengganu"
	},
	{
		"postcode" : ["20548"],
		"name" : "Kuala Terengganu"
	},
	{
		"postcode" : ["20550"],
		"name" : "Kuala Terengganu"
	},
	{
		"postcode" : ["20551"],
		"name" : "Kuala Terengganu"
	},
	{
		"postcode" : ["20552"],
		"name" : "Kuala Terengganu"
	},
	{
		"postcode" : ["20554"],
		"name" : "Kuala Terengganu"
	},
	{
		"postcode" : ["20556"],
		"name" : "Kuala Terengganu"
	},
	{
		"postcode" : ["20560"],
		"name" : "Kuala Terengganu"
	},
	{
		"postcode" : ["20564"],
		"name" : "Kuala Terengganu"
	},
	{
		"postcode" : ["20566"],
		"name" : "Kuala Terengganu"
	},
	{
		"postcode" : ["20568"],
		"name" : "Kuala Terengganu"
	},
	{
		"postcode" : ["20570"],
		"name" : "Kuala Terengganu"
	},
	{
		"postcode" : ["20572"],
		"name" : "Kuala Terengganu"
	},
	{
		"postcode" : ["20576"],
		"name" : "Kuala Terengganu"
	},
	{
		"postcode" : ["20578"],
		"name" : "Kuala Terengganu"
	},
	{
		"postcode" : ["20582"],
		"name" : "Kuala Terengganu"
	},
	{
		"postcode" : ["20586"],
		"name" : "Kuala Terengganu"
	},
	{
		"postcode" : ["20590"],
		"name" : "Kuala Terengganu"
	},
	{
		"postcode" : ["20592"],
		"name" : "Kuala Terengganu"
	},
	{
		"postcode" : ["20596"],
		"name" : "Kuala Terengganu"
	},
	{
		"postcode" : ["20600"],
		"name" : "Kuala Terengganu"
	},
	{
		"postcode" : ["20604"],
		"name" : "Kuala Terengganu"
	},
	{
		"postcode" : ["20606"],
		"name" : "Kuala Terengganu"
	},
	{
		"postcode" : ["20608"],
		"name" : "Kuala Terengganu"
	},
	{
		"postcode" : ["20609"],
		"name" : "Kuala Terengganu"
	},
	{
		"postcode" : ["20610"],
		"name" : "Kuala Terengganu"
	},
	{
		"postcode" : ["20612"],
		"name" : "Kuala Terengganu"
	},
	{
		"postcode" : ["20614"],
		"name" : "Kuala Terengganu"
	},
	{
		"postcode" : ["20618"],
		"name" : "Kuala Terengganu"
	},
	{
		"postcode" : ["20620"],
		"name" : "Kuala Terengganu"
	},
	{
		"postcode" : ["20622"],
		"name" : "Kuala Terengganu"
	},
	{
		"postcode" : ["20626"],
		"name" : "Kuala Terengganu"
	},
	{
		"postcode" : ["20628"],
		"name" : "Kuala Terengganu"
	},
	{
		"postcode" : ["20630"],
		"name" : "Kuala Terengganu"
	},
	{
		"postcode" : ["20632"],
		"name" : "Kuala Terengganu"
	},
	{
		"postcode" : ["20646"],
		"name" : "Kuala Terengganu"
	},
	{
		"postcode" : ["20648"],
		"name" : "Kuala Terengganu"
	},
	{
		"postcode" : ["20656"],
		"name" : "Kuala Terengganu"
	},
	{
		"postcode" : ["20658"],
		"name" : "Kuala Terengganu"
	},
	{
		"postcode" : ["20660"],
		"name" : "Kuala Terengganu"
	},
	{
		"postcode" : ["20661"],
		"name" : "Kuala Terengganu"
	},
	{
		"postcode" : ["20662"],
		"name" : "Kuala Terengganu"
	},
	{
		"postcode" : ["20664"],
		"name" : "Kuala Terengganu"
	},
	{
		"postcode" : ["20668"],
		"name" : "Kuala Terengganu"
	},
	{
		"postcode" : ["20670"],
		"name" : "Kuala Terengganu"
	},
	{
		"postcode" : ["20672"],
		"name" : "Kuala Terengganu"
	},
	{
		"postcode" : ["20673"],
		"name" : "Kuala Terengganu"
	},
	{
		"postcode" : ["20674"],
		"name" : "Kuala Terengganu"
	},
	{
		"postcode" : ["20676"],
		"name" : "Kuala Terengganu"
	},
	{
		"postcode" : ["20680"],
		"name" : "Kuala Terengganu"
	},
	{
		"postcode" : ["20690"],
		"name" : "Kuala Terengganu"
	},
	{
		"postcode" : ["20698"],
		"name" : "Kuala Terengganu"
	},
	{
		"postcode" : ["20700"],
		"name" : "Kuala Terengganu"
	},
	{
		"postcode" : ["20710"],
		"name" : "Kuala Terengganu"
	},
	{
		"postcode" : ["20720"],
		"name" : "Kuala Terengganu"
	},
	{
		"postcode" : ["20900"],
		"name" : "Kuala Terengganu"
	},
	{
		"postcode" : ["20902"],
		"name" : "Kuala Terengganu"
	},
	{
		"postcode" : ["20904"],
		"name" : "Kuala Terengganu"
	},
	{
		"postcode" : ["20906"],
		"name" : "Kuala Terengganu"
	},
	{
		"postcode" : ["20908"],
		"name" : "Kuala Terengganu"
	},
	{
		"postcode" : ["20910"],
		"name" : "Kuala Terengganu"
	},
	{
		"postcode" : ["20912"],
		"name" : "Kuala Terengganu"
	},
	{
		"postcode" : ["20914"],
		"name" : "Kuala Terengganu"
	},
	{
		"postcode" : ["20916"],
		"name" : "Kuala Terengganu"
	},
	{
		"postcode" : ["20918"],
		"name" : "Kuala Terengganu"
	},
	{
		"postcode" : ["20920"],
		"name" : "Kuala Terengganu"
	},
	{
		"postcode" : ["20922"],
		"name" : "Kuala Terengganu"
	},
	{
		"postcode" : ["20924"],
		"name" : "Kuala Terengganu"
	},
	{
		"postcode" : ["20926"],
		"name" : "Kuala Terengganu"
	},
	{
		"postcode" : ["20928"],
		"name" : "Kuala Terengganu"
	},
	{
		"postcode" : ["20930"],
		"name" : "Kuala Terengganu"
	},
	{
		"postcode" : ["20990"],
		"name" : "Kuala Terengganu"
	},
	{
		"postcode" : ["21000"],
		"name" : "Kuala Terengganu"
	},
	{
		"postcode" : ["21009"],
		"name" : "Kuala Terengganu"
	},
	{
		"postcode" : ["21010"],
		"name" : "Kuala Terengganu"
	},
	{
		"postcode" : ["21020"],
		"name" : "Kuala Terengganu"
	},
	{
		"postcode" : ["21030"],
		"name" : "Kuala Terengganu"
	},
	{
		"postcode" : ["21040"],
		"name" : "Kuala Terengganu"
	},
	{
		"postcode" : ["21060"],
		"name" : "Kuala Terengganu"
	},
	{
		"postcode" : ["21070"],
		"name" : "Kuala Terengganu"
	},
	{
		"postcode" : ["21080"],
		"name" : "Kuala Terengganu"
	},
	{
		"postcode" : ["21090"],
		"name" : "Kuala Terengganu"
	},
	{
		"postcode" : ["21100"],
		"name" : "Kuala Terengganu"
	},
	{
		"postcode" : ["21109"],
		"name" : "Kuala Terengganu"
	},
	{
		"postcode" : ["21200"],
		"name" : "Kuala Terengganu"
	},
	{
		"postcode" : ["21209"],
		"name" : "Kuala Terengganu"
	},
	{
		"postcode" : ["21210"],
		"name" : "Kuala Terengganu"
	},
	{
		"postcode" : ["21220"],
		"name" : "Kuala Terengganu"
	},
	{
		"postcode" : ["21300"],
		"name" : "Kuala Terengganu"
	},
	{
		"postcode" : ["21309"],
		"name" : "Kuala Terengganu"
	},
	{
		"postcode" : ["21400"],
		"name" : "Bukit Payong"
	},
	{
		"postcode" : ["21450"],
		"name" : "Chalok"
	},
	{
		"postcode" : ["21500"],
		"name" : "Sungai Tong"
	},
	{
		"postcode" : ["21600"],
		"name" : "Marang"
	},
	{
		"postcode" : ["21610"],
		"name" : "Marang"
	},
	{
		"postcode" : ["21700"],
		"name" : "Kuala Berang"
	},
	{
		"postcode" : ["21800"],
		"name" : "Ajil"
	},
	{
		"postcode" : ["21810"],
		"name" : "Ajil"
	},
	{
		"postcode" : ["21820"],
		"name" : "Ajil"
	},
	{
		"postcode" : ["22000"],
		"name" : "Jerteh"
	},
	{
		"postcode" : ["22010"],
		"name" : "Jerteh"
	},
	{
		"postcode" : ["22020"],
		"name" : "Jerteh"
	},
	{
		"postcode" : ["22100"],
		"name" : "Permaisuri"
	},
	{
		"postcode" : ["22107"],
		"name" : "Permaisuri"
	},
	{
		"postcode" : ["22109"],
		"name" : "Permaisuri"
	},
	{
		"postcode" : ["22110"],
		"name" : "Permaisuri"
	},
	{
		"postcode" : ["22120"],
		"name" : "Permaisuri"
	},
	{
		"postcode" : ["22200"],
		"name" : "Kampung Raja"
	},
	{
		"postcode" : ["22300"],
		"name" : "Kuala Besut"
	},
	{
		"postcode" : ["22307"],
		"name" : "Kuala Besut"
	},
	{
		"postcode" : ["22309"],
		"name" : "Kuala Besut"
	},
	{
		"postcode" : ["23000"],
		"name" : "Dungun"
	},
	{
		"postcode" : ["23007"],
		"name" : "Dungun"
	},
	{
		"postcode" : ["23009"],
		"name" : "Dungun"
	},
	{
		"postcode" : ["23050"],
		"name" : "Dungun"
	},
	{
		"postcode" : ["23100"],
		"name" : "Paka"
	},
	{
		"postcode" : ["23200"],
		"name" : "Bukit Besi"
	},
	{
		"postcode" : ["23300"],
		"name" : "Ketengah Jaya"
	},
	{
		"postcode" : ["23400"],
		"name" : "Al Muktatfi Billah Shah"
	},
	{
		"postcode" : ["24000"],
		"name" : "Cukai"
	},
	{
		"postcode" : ["24007"],
		"name" : "Cukai"
	},
	{
		"postcode" : ["24009"],
		"name" : "Cukai"
	},
	{
		"postcode" : ["24050"],
		"name" : "Ayer Puteh"
	},
	{
		"postcode" : ["24060"],
		"name" : "Ceneh"
	},
	{
		"postcode" : ["24100"],
		"name" : "Kijal"
	},
	{
		"postcode" : ["24107"],
		"name" : "Kijal"
	},
	{
		"postcode" : ["24109"],
		"name" : "Kijal"
	},
	{
		"postcode" : ["24200"],
		"name" : "Kemasek"
	},
	{
		"postcode" : ["24207"],
		"name" : "Kemasek"
	},
	{
		"postcode" : ["24209"],
		"name" : "Kemasek"
	},
	{
		"postcode" : ["24300"],
		"name" : "Kerteh"
	}
]
